GSAT0101 (PRN E11)      
1 37846U 11060A   23278.97232852 -.00000111  00000+0  00000+0 0  9998
2 37846  57.1124   8.4435 0000502  54.3424 305.6913  1.70475964 74329
GSAT0102 (PRN E12)      
1 37847U 11060B   23277.76000083 -.00000111  00000+0  00000+0 0  9994
2 37847  57.1130   8.4766 0001722 306.1584  76.0509  1.70475330 74310
GSAT0103 (PRN E19)      
1 38857U 12055A   23279.01151092  .00000019  00000+0  00000+0 0  9994
2 38857  55.2947 128.6213 0002146 250.7518 109.3070  1.70473763 68214
GSAT0104 (PRN E20)      
1 38858U 12055B   23278.98092086  .00000019  00000+0  00000+0 0  9997
2 38858  55.2945 128.6236 0000969 142.2701 217.8188  1.70474018 68217
GSAT0201 (PRN E18)      
1 40128U 14050A   23278.60466055 -.00000070  00000+0  00000+0 0  9995
2 40128  49.9073 313.3153 1607836 141.5622 231.0792  1.85519462 60034
GSAT0202 (PRN E14)      
1 40129U 14050B   23278.86393356 -.00000066  00000+0  00000+0 0  9992
2 40129  49.9261 312.3770 1605722 142.3823 230.0277  1.85520123 62206
GSAT0203 (PRN E26)      
1 40544U 15017A   23272.29929207 -.00000102  00000+0  00000+0 0  9999
2 40544  56.9059   8.5936 0003937 234.5687 125.4158  1.70476049 52956
GSAT0204 (PRN E22)      
1 40545U 15017B   23277.24568794 -.00000111  00000+0  00000+0 0  9990
2 40545  56.9135   8.4737 0004250 221.0043 138.9926  1.70475700 15422
GSAT0205 (PRN E24)      
1 40889U 15045A   23278.18681648  .00000009  00000+0  00000+0 0  9995
2 40889  55.3485 248.8439 0004039   4.1141 355.8614  1.70473137 50208
GSAT0206 (PRN E30)      
1 40890U 15045B   23278.99408529  .00000007  00000+0  00000+0 0  9999
2 40890  55.3471 248.8172 0002647 338.6038  21.3593  1.70473173 50247
GSAT0209 (PRN E09)      
1 41174U 15079A   23279.16571778  .00000020  00000+0  00000+0 0  9994
2 41174  55.3127 128.3243 0002239 343.2744  16.8002  1.70474236 47987
GSAT0208 (PRN E08)      
1 41175U 15079B   23277.03901922  .00000015  00000+0  00000+0 0  9991
2 41175  55.3101 128.3808 0001827 353.1930   6.8897  1.70474087 48364
GSAT0211 (PRN E02)      
1 41549U 16030A   23278.91977118  .00000008  00000+0  00000+0 0  9994
2 41549  55.4946 248.8029 0004018 318.4017  41.5418  1.70473213 45873
GSAT0210 (PRN E01)      
1 41550U 16030B   23279.21124734  .00000007  00000+0  00000+0 0  9997
2 41550  55.4937 248.7961 0003881 283.8854  76.0459  1.70473794 45872
GSAT0207 (PRN E07)      
1 41859U 16069A   23277.69979114  .00000014  00000+0  00000+0 0  9999
2 41859  54.9751 128.4288 0002080 314.2677  45.7982  1.70474180 42589
GSAT0212 (PRN E03)      
1 41860U 16069B   23276.96783936  .00000014  00000+0  00000+0 0  9995
2 41860  54.9723 128.4461 0001957  19.1169 340.9759  1.70474298 42821
GSAT0213 (PRN E04)      
1 41861U 16069C   23279.09388813  .00000019  00000+0  00000+0 0  9993
2 41861  54.9755 128.3931 0001936 267.1568  92.9029  1.70473057 42728
GSAT0214 (PRN E05)      
1 41862U 16069D   23279.24115637  .00000019  00000+0  00000+0 0  9993
2 41862  54.9736 128.3829 0000971 271.1953  88.8756  1.70472960 42852
GSAT0215 (PRN E21)      
1 43055U 17079A   23279.14301643  .00000007  00000+0  00000+0 0  9991
2 43055  55.4708 248.6222 0003375 277.8370  82.0991  1.70473931 36199
GSAT0216 (PRN E25)      
1 43056U 17079B   23278.26173872  .00000009  00000+0  00000+0 0  9997
2 43056  55.4718 248.6463 0004971 281.4744  78.4421  1.70474054 36191
GSAT0217 (PRN E27)      
1 43057U 17079C   23279.06869399  .00000007  00000+0  00000+0 0  9991
2 43057  55.4692 248.6232 0004441 293.6073  66.3202  1.70474031 36197
GSAT0218 (PRN E31)      
1 43058U 17079D   23279.28874576  .00000007  00000+0  00000+0 0  9999
2 43058  55.4692 248.6147 0005373 278.2194  81.6942  1.70474012 36225
GSAT0221 (PRN E15)      
1 43564U 18060A   23273.32270937 -.00000104  00000+0  00000+0 0  9991
2 43564  57.2877   8.5008 0003568 254.1728 105.8116  1.70476119 32274
GSAT0222 (PRN E33)      
1 43565U 18060B   23277.64693084 -.00000111  00000+0  00000+0 0  9991
2 43565  57.2917   8.3852 0004153 222.8064 137.1905  1.70475954 32394
GSAT0219 (PRN E36)      
1 43566U 18060C   23276.10946754 -.00000110  00000+0  00000+0 0  9996
2 43566  57.2907   8.4289 0003079 258.3568 101.6372  1.70476034 32347
GSAT0220 (PRN E13)      
1 43567U 18060D   23279.26282738 -.00000111  00000+0  00000+0 0  9993
2 43567  57.2907   8.3437 0003404 255.9586 104.0328  1.70476249 32387
GSAT0223 (PRN E34)      
1 49809U 21116A   23277.29379497 -.00000111  00000+0  00000+0 0  9994
2 49809  57.2820   8.2923 0003651 199.0596 122.7870  1.70476230 11351
GSAT0224 (PRN E10)      
1 49810U 21116B   23279.50556902 -.00000111  00000+0  00000+0 0  9990
2 49810  57.2829   8.2311 0002917 191.6737 160.0776  1.70476466 11410
